STARLINK-6338           
1 57364U 23099AN  25292.67566155  .00000034  00000+0  17564-4 0  9992
2 57364  43.0039 282.2393 0001049 274.0408  86.0314 15.02535006125056
STARLINK-5007           
1 57365U 23099AP  25293.26397153 -.00000804  00000+0 -44422-4 0  9999
2 57365  43.0033 278.9068 0001112 265.3419  94.7296 15.02535668125147
STARLINK-6174           
1 57366U 23099AQ  25292.66899563  .00000195  00000+0  29488-4 0  9991
2 57366  43.0029 282.1865 0001396 277.7140  82.3544 15.02538767125059
STARLINK-6215           
1 57367U 23099AR  25293.19442381 -.00000553  00000+0 -25877-4 0  9991
2 57367  43.0067 266.2174 0001266 263.2215  96.8483 15.02527693126034
STARLINK-6218           
1 57368U 23099AS  25293.26175336  .00000829  00000+0  76476-4 0  9998
2 57368  43.0044 278.8932 0001199 267.4666  92.6039 15.02525003125147
STARLINK-6168           
1 57369U 23099AT  25292.67233056 -.00000278  00000+0 -55329-5 0  9992
2 57369  43.0037 282.2144 0001159 267.2097  92.8612 15.02534316125052
STARLINK-5353           
1 57370U 23099AU  25293.25508708  .00001215  00000+0  10498-3 0  9994
2 57370  43.0055 278.8389 0001310 272.8280  87.2412 15.02539606125144
STARLINK-6032           
1 57371U 23099AV  25292.67011735  .00004484  00000+0  34682-3 0  9991
2 57371  43.0052 282.1941 0001278 260.2935  99.7763 15.02533869125057
STARLINK-5975           
1 57372U 23099AW  25293.24732091  .00000667  00000+0  64475-4 0  9994
2 57372  43.0031 278.7720 0001118 267.1720  92.8995 15.02535420125148
STARLINK-6370           
1 57373U 23099AX  25293.23634560 -.00000001  00000+0  15003-4 0  9992
2 57373  43.0055 279.5511 0000969 262.4472  97.6261 15.02531116125133
STARLINK-6369           
1 57374U 23099AY  25293.20664931 -.00001481  00000+0 -94621-4 0  9992
2 57374  43.0069 266.3288 0001070 257.9949 102.0773 15.02517681125282
STARLINK-6363           
1 57375U 23099AZ  25293.25398844 -.00000766  00000+0 -41673-4 0  9999
2 57375  43.0024 278.8338 0000924 260.2879  99.7859 15.02521017125144
STARLINK-6367           
1 57376U 23099BA  25293.24399807  .00014956  00000+0  11198-2 0  9990
2 57376  43.0031 278.7602 0001064 248.6149 111.4580 15.02538400125149
STARLINK-6358           
1 57377U 23099BB  25293.24844560 -.00001233  00000+0 -76251-4 0  9991
2 57377  43.0048 278.7946 0001312 266.6451  93.4241 15.02529534125142
STARLINK-6364           
1 57378U 23099BC  25293.20245214 -.00000516  00000+0 -23103-4 0  9990
2 57378  43.0038 253.2956 0001423 275.9390  84.1291 15.02533301126172
STARLINK-6361           
1 57379U 23099BD  25292.24794288 -.00000540  00000+0 -24924-4 0  9993
2 57379  43.0035 284.1883 0001121 271.5186  88.5528 15.02529025124999
