[{"OBJECT_NAME":"STARLINK-6338","OBJECT_ID":"2023-099AN","EPOCH":"2025-10-19T16:12:57.157920","MEAN_MOTION":15.02535006,"ECCENTRICITY":0.00010499,"INCLINATION":43.0039,"RA_OF_ASC_NODE":282.2393,"ARG_OF_PERICENTER":274.0408,"MEAN_ANOMALY":86.0314,"EPHEMERIS_TYPE":0,"CLASSIFICATION_TYPE":"U","NORAD_CAT_ID":57364,"ELEMENT_SET_NO":999,"REV_AT_EPOCH":12505,"BSTAR":1.7563875e-5,"MEAN_MOTION_DOT":3.4e-7,"MEAN_MOTION_DDOT":0},{"OBJECT_NAME":"STARLINK-5007","OBJECT_ID":"2023-099AP","EPOCH":"2025-10-20T06:20:07.140192","MEAN_MOTION":15.02535668,"ECCENTRICITY":0.00011129,"INCLINATION":43.0033,"RA_OF_ASC_NODE":278.9068,"ARG_OF_PERICENTER":265.3419,"MEAN_ANOMALY":94.7296,"EPHEMERIS_TYPE":0,"CLASSIFICATION_TYPE":"U","NORAD_CAT_ID":57365,"ELEMENT_SET_NO":999,"REV_AT_EPOCH":12514,"BSTAR":-4.44215e-5,"MEAN_MOTION_DOT":-8.04e-6,"MEAN_MOTION_DDOT":0},{"OBJECT_NAME":"STARLINK-6174","OBJECT_ID":"2023-099AQ","EPOCH":"2025-10-19T16:03:21.222432","MEAN_MOTION":15.02538767,"ECCENTRICITY":0.00013969,"INCLINATION":43.0029,"RA_OF_ASC_NODE":282.1865,"ARG_OF_PERICENTER":277.714,"MEAN_ANOMALY":82.3544,"EPHEMERIS_TYPE":0,"CLASSIFICATION_TYPE":"U","NORAD_CAT_ID":57366,"ELEMENT_SET_NO":999,"REV_AT_EPOCH":12505,"BSTAR":2.9488331e-5,"MEAN_MOTION_DOT":1.95e-6,"MEAN_MOTION_DDOT":0},{"OBJECT_NAME":"STARLINK-6215","OBJECT_ID":"2023-099AR","EPOCH":"2025-10-20T04:39:58.217184","MEAN_MOTION":15.02527693,"ECCENTRICITY":0.00012668,"INCLINATION":43.0067,"RA_OF_ASC_NODE":266.2174,"ARG_OF_PERICENTER":263.2215,"MEAN_ANOMALY":96.8483,"EPHEMERIS_TYPE":0,"CLASSIFICATION_TYPE":"U","NORAD_CAT_ID":57367,"ELEMENT_SET_NO":999,"REV_AT_EPOCH":12603,"BSTAR":-2.5877237e-5,"MEAN_MOTION_DOT":-5.53e-6,"MEAN_MOTION_DDOT":0},{"OBJECT_NAME":"STARLINK-6218","OBJECT_ID":"2023-099AS","EPOCH":"2025-10-20T06:16:55.490304","MEAN_MOTION":15.02525003,"ECCENTRICITY":0.00011995,"INCLINATION":43.0044,"RA_OF_ASC_NODE":278.8932,"ARG_OF_PERICENTER":267.4666,"MEAN_ANOMALY":92.6039,"EPHEMERIS_TYPE":0,"CLASSIFICATION_TYPE":"U","NORAD_CAT_ID":57368,"ELEMENT_SET_NO":999,"REV_AT_EPOCH":12514,"BSTAR":7.6475993e-5,"MEAN_MOTION_DOT":8.29e-6,"MEAN_MOTION_DDOT":0},{"OBJECT_NAME":"STARLINK-6168","OBJECT_ID":"2023-099AT","EPOCH":"2025-10-19T16:08:09.360384","MEAN_MOTION":15.02534316,"ECCENTRICITY":0.00011594,"INCLINATION":43.0037,"RA_OF_ASC_NODE":282.2144,"ARG_OF_PERICENTER":267.2097,"MEAN_ANOMALY":92.8612,"EPHEMERIS_TYPE":0,"CLASSIFICATION_TYPE":"U","NORAD_CAT_ID":57369,"ELEMENT_SET_NO":999,"REV_AT_EPOCH":12505,"BSTAR":-5.532884e-6,"MEAN_MOTION_DOT":-2.78e-6,"MEAN_MOTION_DDOT":0},{"OBJECT_NAME":"STARLINK-5353","OBJECT_ID":"2023-099AU","EPOCH":"2025-10-20T06:07:19.523712","MEAN_MOTION":15.02539606,"ECCENTRICITY":0.00013101,"INCLINATION":43.0055,"RA_OF_ASC_NODE":278.8389,"ARG_OF_PERICENTER":272.828,"MEAN_ANOMALY":87.2412,"EPHEMERIS_TYPE":0,"CLASSIFICATION_TYPE":"U","NORAD_CAT_ID":57370,"ELEMENT_SET_NO":999,"REV_AT_EPOCH":12514,"BSTAR":0.00010498194,"MEAN_MOTION_DOT":1.215e-5,"MEAN_MOTION_DDOT":0},{"OBJECT_NAME":"STARLINK-6032","OBJECT_ID":"2023-099AV","EPOCH":"2025-10-19T16:04:58.139040","MEAN_MOTION":15.02533869,"ECCENTRICITY":0.00012783,"INCLINATION":43.0052,"RA_OF_ASC_NODE":282.1941,"ARG_OF_PERICENTER":260.2935,"MEAN_ANOMALY":99.7763,"EPHEMERIS_TYPE":0,"CLASSIFICATION_TYPE":"U","NORAD_CAT_ID":57371,"ELEMENT_SET_NO":999,"REV_AT_EPOCH":12505,"BSTAR":0.0003468216,"MEAN_MOTION_DOT":4.484e-5,"MEAN_MOTION_DDOT":0},{"OBJECT_NAME":"STARLINK-5975","OBJECT_ID":"2023-099AW","EPOCH":"2025-10-20T05:56:08.526624","MEAN_MOTION":15.0253542,"ECCENTRICITY":0.00011187,"INCLINATION":43.0031,"RA_OF_ASC_NODE":278.772,"ARG_OF_PERICENTER":267.172,"MEAN_ANOMALY":92.8995,"EPHEMERIS_TYPE":0,"CLASSIFICATION_TYPE":"U","NORAD_CAT_ID":57372,"ELEMENT_SET_NO":999,"REV_AT_EPOCH":12514,"BSTAR":6.4474824e-5,"MEAN_MOTION_DOT":6.67e-6,"MEAN_MOTION_DDOT":0},{"OBJECT_NAME":"STARLINK-6370","OBJECT_ID":"2023-099AX","EPOCH":"2025-10-20T05:40:20.259840","MEAN_MOTION":15.02531116,"ECCENTRICITY":9.696e-5,"INCLINATION":43.0055,"RA_OF_ASC_NODE":279.5511,"ARG_OF_PERICENTER":262.4472,"MEAN_ANOMALY":97.6261,"EPHEMERIS_TYPE":0,"CLASSIFICATION_TYPE":"U","NORAD_CAT_ID":57373,"ELEMENT_SET_NO":999,"REV_AT_EPOCH":12513,"BSTAR":1.50029e-5,"MEAN_MOTION_DOT":-1.0e-8,"MEAN_MOTION_DDOT":0},{"OBJECT_NAME":"STARLINK-6369","OBJECT_ID":"2023-099AY","EPOCH":"2025-10-20T04:57:34.500384","MEAN_MOTION":15.02517681,"ECCENTRICITY":0.00010709,"INCLINATION":43.0069,"RA_OF_ASC_NODE":266.3288,"ARG_OF_PERICENTER":257.9949,"MEAN_ANOMALY":102.0773,"EPHEMERIS_TYPE":0,"CLASSIFICATION_TYPE":"U","NORAD_CAT_ID":57374,"ELEMENT_SET_NO":999,"REV_AT_EPOCH":12528,"BSTAR":-9.4620643e-5,"MEAN_MOTION_DOT":-1.481e-5,"MEAN_MOTION_DDOT":0},{"OBJECT_NAME":"STARLINK-6363","OBJECT_ID":"2023-099AZ","EPOCH":"2025-10-20T06:05:44.601216","MEAN_MOTION":15.02521017,"ECCENTRICITY":9.249e-5,"INCLINATION":43.0024,"RA_OF_ASC_NODE":278.8338,"ARG_OF_PERICENTER":260.2879,"MEAN_ANOMALY":99.7859,"EPHEMERIS_TYPE":0,"CLASSIFICATION_TYPE":"U","NORAD_CAT_ID":57375,"ELEMENT_SET_NO":999,"REV_AT_EPOCH":12514,"BSTAR":-4.1672984e-5,"MEAN_MOTION_DOT":-7.66e-6,"MEAN_MOTION_DDOT":0},{"OBJECT_NAME":"STARLINK-6367","OBJECT_ID":"2023-099BA","EPOCH":"2025-10-20T05:51:21.433248","MEAN_MOTION":15.025384,"ECCENTRICITY":0.00010649,"INCLINATION":43.0031,"RA_OF_ASC_NODE":278.7602,"ARG_OF_PERICENTER":248.6149,"MEAN_ANOMALY":111.458,"EPHEMERIS_TYPE":0,"CLASSIFICATION_TYPE":"U","NORAD_CAT_ID":57376,"ELEMENT_SET_NO":999,"REV_AT_EPOCH":12514,"BSTAR":0.00111977,"MEAN_MOTION_DOT":0.00014956,"MEAN_MOTION_DDOT":0},{"OBJECT_NAME":"STARLINK-6358","OBJECT_ID":"2023-099BB","EPOCH":"2025-10-20T05:57:45.699840","MEAN_MOTION":15.02529534,"ECCENTRICITY":0.00013126,"INCLINATION":43.0048,"RA_OF_ASC_NODE":278.7946,"ARG_OF_PERICENTER":266.6451,"MEAN_ANOMALY":93.4241,"EPHEMERIS_TYPE":0,"CLASSIFICATION_TYPE":"U","NORAD_CAT_ID":57377,"ELEMENT_SET_NO":999,"REV_AT_EPOCH":12514,"BSTAR":-7.6250856e-5,"MEAN_MOTION_DOT":-1.233e-5,"MEAN_MOTION_DDOT":0},{"OBJECT_NAME":"STARLINK-6364","OBJECT_ID":"2023-099BC","EPOCH":"2025-10-20T04:51:31.864896","MEAN_MOTION":15.02533301,"ECCENTRICITY":0.00014233,"INCLINATION":43.0038,"RA_OF_ASC_NODE":253.2956,"ARG_OF_PERICENTER":275.939,"MEAN_ANOMALY":84.1291,"EPHEMERIS_TYPE":0,"CLASSIFICATION_TYPE":"U","NORAD_CAT_ID":57378,"ELEMENT_SET_NO":999,"REV_AT_EPOCH":12617,"BSTAR":-2.3102583e-5,"MEAN_MOTION_DOT":-5.16e-6,"MEAN_MOTION_DDOT":0},{"OBJECT_NAME":"STARLINK-6361","OBJECT_ID":"2023-099BD","EPOCH":"2025-10-19T05:57:02.264832","MEAN_MOTION":15.02529025,"ECCENTRICITY":0.00011216,"INCLINATION":43.0035,"RA_OF_ASC_NODE":284.1883,"ARG_OF_PERICENTER":271.5186,"MEAN_ANOMALY":88.5528,"EPHEMERIS_TYPE":0,"CLASSIFICATION_TYPE":"U","NORAD_CAT_ID":57379,"ELEMENT_SET_NO":999,"REV_AT_EPOCH":12499,"BSTAR":-2.4924139e-5,"MEAN_MOTION_DOT":-5.4e-6,"MEAN_MOTION_DDOT":0}]
